{"type": "FeatureCollection", "features": [ {"type": "Feature", "properties": {"norad_id": 41785, "name": "ALSAT 1B", "group": "resource", "lat": -41.70180707657984, "lon": 11.501908790273541, "alt_km": 665.6748479969128, "timestamp": "2025-12-18T23:35:48.704615+00:00", "meta": {"OBJECT_NAME": "ALSAT 1B", "OBJECT_ID": "2016-059C", "EPOCH": "2025-12-18T15:37:53.571072", "MEAN_MOTION": 14.72080312, "ECCENTRICITY": 0.00107758, "INCLINATION": 97.781, "RA_OF_ASC_NODE": 4.1863, "ARG_OF_PERICENTER": 86.6929, "MEAN_ANOMALY": 273.5512, "EPHEMERIS_TYPE": 0, "CLASSIFICATION_TYPE": "U", "NORAD_CAT_ID": 41785, "ELEMENT_SET_NO": 999, "REV_AT_EPOCH": 49401, "BSTAR": 1.0027634e-05, "MEAN_MOTION_DOT": 1.6e-07, "MEAN_MOTION_DDOT": 0}, "tle": {"line1": "1 41785U 16059C   25352.65131448  .00000016  00000+0  10028-4 0  9996", "line2": "2 41785  97.7810   4.1863 0010775  86.6929 273.5512 14.72080312494012"}}, "geometry": {"type": "Point", "coordinates": [11.501908790273541, -41.70180707657984]}}, {"type": "Feature", "properties": {"norad_id": 41787, "name": "PATHFINDER 1", "group": "resource", "lat": -68.89112881522404, "lon": 16.303445555729112, "alt_km": 691.0668833245118, "timestamp": "2025-12-18T23:35:48.704625+00:00", "meta": {"OBJECT_NAME": "PATHFINDER 1", "OBJECT_ID": "2016-059E", "EPOCH": "2025-12-18T14:05:51.080064", "MEAN_MOTION": 14.67331131, "ECCENTRICITY": 0.0029905, "INCLINATION": 97.8136, "RA_OF_ASC_NODE": 355.0897, "ARG_OF_PERICENTER": 63.4215, "MEAN_ANOMALY": 297.005, "EPHEMERIS_TYPE": 0, "CLASSIFICATION_TYPE": "U", "NORAD_CAT_ID": 41787, "ELEMENT_SET_NO": 999, "REV_AT_EPOCH": 49322, "BSTAR": 0.00011554908, "MEAN_MOTION_DOT": 6.1e-06, "MEAN_MOTION_DDOT": 0}, "tle": {"line1": "1 41787U 16059E   25352.58739676  .00000610  00000+0  11555-3 0  9992", "line2": "2 41787  97.8136 355.0897 0029905  63.4215 297.0050 14.67331131493229"}}, "geometry": {"type": "Point", "coordinates": [16.303445555729112, -68.89112881522404]}}, {"type": "Feature", "properties": {"norad_id": 41790, "name": "SCATSAT 1", "group": "resource", "lat": -4.267576011765544, "lon": -130.8811328823104, "alt_km": 626.3397072127327, "timestamp": "2025-12-18T23:35:48.704635+00:00", "meta": {"OBJECT_NAME": "SCATSAT 1", "OBJECT_ID": "2016-059H", "EPOCH": "2025-12-18T14:39:12.527424", "MEAN_MOTION": 14.78955501, "ECCENTRICITY": 0.00564223, "INCLINATION": 98.1457, "RA_OF_ASC_NODE": 49.354, "ARG_OF_PERICENTER": 109.4648, "MEAN_ANOMALY": 251.2671, "EPHEMERIS_TYPE": 0, "CLASSIFICATION_TYPE": "U", "NORAD_CAT_ID": 41790, "ELEMENT_SET_NO": 999, "REV_AT_EPOCH": 7489, "BSTAR": 0.00016061403, "MEAN_MOTION_DOT": 1.16e-05, "MEAN_MOTION_DDOT": 0}, "tle": {"line1": "1 41790U 16059H   25352.61056166  .00001160  00000+0  16061-3 0  9994", "line2": "2 41790  98.1457  49.3540 0056422 109.4648 251.2671 14.78955501 74890"}}, "geometry": {"type": "Point", "coordinates": [-130.8811328823104, -4.267576011765544]}}, {"type": "Feature", "properties": {"norad_id": 41875, "name": "GOKTURK 1A", "group": "resource", "lat": -80.62573675176046, "lon": 5.112727785872274, "alt_km": 692.4166196204942, "timestamp": "2025-12-18T23:35:48.704646+00:00", "meta": {"OBJECT_NAME": "GOKTURK 1A", "OBJECT_ID": "2016-073A", "EPOCH": "2025-12-18T15:49:14.632032", "MEAN_MOTION": 14.62786253, "ECCENTRICITY": 0.00012546, "INCLINATION": 98.1434, "RA_OF_ASC_NODE": 244.9454, "ARG_OF_PERICENTER": 80.2519, "MEAN_ANOMALY": 279.8825, "EPHEMERIS_TYPE": 0, "CLASSIFICATION_TYPE": "U", "NORAD_CAT_ID": 41875, "ELEMENT_SET_NO": 999, "REV_AT_EPOCH": 48243, "BSTAR": 9.093696e-05, "MEAN_MOTION_DOT": 4.17e-06, "MEAN_MOTION_DDOT": 0}, "tle": {"line1": "1 41875U 16073A   25352.65919713  .00000417  00000+0  90937-4 0  9993", "line2": "2 41875  98.1434 244.9454 0001254  80.2519 279.8825 14.62786253482431"}}, "geometry": {"type": "Point", "coordinates": [5.112727785872274, -80.62573675176046]}}, {"type": "Feature", "properties": {"norad_id": 41877, "name": "RESOURCESAT-2A", "group": "resource", "lat": 68.04570027988746, "lon": -94.6640820899824, "alt_km": 813.6935528142194, "timestamp": "2025-12-18T23:35:48.704657+00:00", "meta": {"OBJECT_NAME": "RESOURCESAT-2A", "OBJECT_ID": "2016-074A", "EPOCH": "2025-12-18T14:38:04.017408", "MEAN_MOTION": 14.21602653, "ECCENTRICITY": 0.00013471, "INCLINATION": 98.7757, "RA_OF_ASC_NODE": 62.4319, "ARG_OF_PERICENTER": 226.1466, "MEAN_ANOMALY": 133.96, "EPHEMERIS_TYPE": 0, "CLASSIFICATION_TYPE": "U", "NORAD_CAT_ID": 41877, "ELEMENT_SET_NO": 999, "REV_AT_EPOCH": 46864, "BSTAR": 0.00016298718, "MEAN_MOTION_DOT": 3.13e-06, "MEAN_MOTION_DDOT": 0}, "tle": {"line1": "1 41877U 16074A   25352.60976872  .00000313  00000+0  16299-3 0  9993", "line2": "2 41877  98.7757  62.4319 0001347 226.1466 133.9600 14.21602653468649"}}, "geometry": {"type": "Point", "coordinates": [-94.6640820899824, 68.04570027988746]}}, {"type": "Feature", "properties": {"norad_id": 41948, "name": "CARTOSAT-2D", "group": "resource", "lat": 31.115826814318613, "lon": -125.09025432028248, "alt_km": 502.7827636563852, "timestamp": "2025-12-18T23:35:48.704667+00:00", "meta": {"OBJECT_NAME": "CARTOSAT-2D", "OBJECT_ID": "2017-008A", "EPOCH": "2025-12-18T15:02:32.197056", "MEAN_MOTION": 15.19318097, "ECCENTRICITY": 0.00050668, "INCLINATION": 97.4392, "RA_OF_ASC_NODE": 50.035, "ARG_OF_PERICENTER": 145.0516, "MEAN_ANOMALY": 215.1052, "EPHEMERIS_TYPE": 0, "CLASSIFICATION_TYPE": "U", "NORAD_CAT_ID": 41948, "ELEMENT_SET_NO": 999, "REV_AT_EPOCH": 49016, "BSTAR": 0.00021147061, "MEAN_MOTION_DOT": 4.399e-05, "MEAN_MOTION_DDOT": 0}, "tle": {"line1": "1 41948U 17008A   25352.62676154  .00004399  00000+0  21147-3 0  9998", "line2": "2 41948  97.4392  50.0350 0005066 145.0516 215.1052 15.19318097490164"}}, "geometry": {"type": "Point", "coordinates": [-125.09025432028248, 31.115826814318613]}}, {"type": "Feature", "properties": {"norad_id": 42063, "name": "SENTINEL-2B", "group": "resource", "lat": -72.3485533924454, "lon": 93.63526569949585, "alt_km": 797.0845634113994, "timestamp": "2025-12-18T23:35:48.704677+00:00", "meta": {"OBJECT_NAME": "SENTINEL-2B", "OBJECT_ID": "2017-013A", "EPOCH": "2025-12-18T15:33:11.094048", "MEAN_MOTION": 14.30818417, "ECCENTRICITY": 0.00011565, "INCLINATION": 98.5716, "RA_OF_ASC_NODE": 65.0115, "ARG_OF_PERICENTER": 93.6475, "MEAN_ANOMALY": 266.4841, "EPHEMERIS_TYPE": 0, "CLASSIFICATION_TYPE": "U", "NORAD_CAT_ID": 42063, "ELEMENT_SET_NO": 999, "REV_AT_EPOCH": 45882, "BSTAR": 4.3842337e-05, "MEAN_MOTION_DOT": 7.1e-07, "MEAN_MOTION_DDOT": 0}, "tle": {"line1": "1 42063U 17013A   25352.64804507  .00000071  00000+0  43842-4 0  9990", "line2": "2 42063  98.5716  65.0115 0001156  93.6475 266.4841 14.30818417458823"}}, "geometry": {"type": "Point", "coordinates": [93.63526569949585, -72.3485533924454]}}, {"type": "Feature", "properties": {"norad_id": 42767, "name": "CARTOSAT-2E", "group": "resource", "lat": 57.11765851179327, "lon": 38.80210513405627, "alt_km": 504.0971053531066, "timestamp": "2025-12-18T23:35:48.704687+00:00", "meta": {"OBJECT_NAME": "CARTOSAT-2E", "OBJECT_ID": "2017-036C", "EPOCH": "2025-12-18T15:26:21.253056", "MEAN_MOTION": 15.19256987, "ECCENTRICITY": 0.00024253, "INCLINATION": 97.4556, "RA_OF_ASC_NODE": 50.1535, "ARG_OF_PERICENTER": 210.6529, "MEAN_ANOMALY": 149.4564, "EPHEMERIS_TYPE": 0, "CLASSIFICATION_TYPE": "U", "NORAD_CAT_ID": 42767, "ELEMENT_SET_NO": 999, "REV_AT_EPOCH": 47073, "BSTAR": 0.00023325601, "MEAN_MOTION_DOT": 4.849e-05, "MEAN_MOTION_DDOT": 0}, "tle": {"line1": "1 42767U 17036C   25352.64330154  .00004849  00000+0  23326-3 0  9999", "line2": "2 42767  97.4556  50.1535 0002425 210.6529 149.4564 15.19256987470738"}}, "geometry": {"type": "Point", "coordinates": [38.80210513405627, 57.11765851179327]}}, {"type": "Feature", "properties": {"norad_id": 42920, "name": "FORMOSAT-5", "group": "resource", "lat": 18.14079588910546, "lon": 64.45433585096038, "alt_km": 724.4561421154003, "timestamp": "2025-12-18T23:35:48.704697+00:00", "meta": {"OBJECT_NAME": "FORMOSAT-5", "OBJECT_ID": "2017-049A", "EPOCH": "2025-12-18T15:14:10.438656", "MEAN_MOTION": 14.50764033, "ECCENTRICITY": 0.00098507, "INCLINATION": 98.2448, "RA_OF_ASC_NODE": 66.836, "ARG_OF_PERICENTER": 281.5669, "MEAN_ANOMALY": 78.442, "EPHEMERIS_TYPE": 0, "CLASSIFICATION_TYPE": "U", "NORAD_CAT_ID": 42920, "ELEMENT_SET_NO": 999, "REV_AT_EPOCH": 44049, "BSTAR": 5.4781796e-05, "MEAN_MOTION_DOT": 1.72e-06, "MEAN_MOTION_DDOT": 0}, "tle": {"line1": "1 42920U 17049A   25352.63484304  .00000172  00000+0  54782-4 0  9996", "line2": "2 42920  98.2448  66.8360 0009850 281.5669  78.4420 14.50764033440491"}}, "geometry": {"type": "Point", "coordinates": [64.45433585096038, 18.14079588910546]}}, {"type": "Feature", "properties": {"norad_id": 42969, "name": "SENTINEL-5P", "group": "resource", "lat": 67.82526481132282, "lon": -90.7689957164039, "alt_km": 819.6596048041656, "timestamp": "2025-12-18T23:35:48.704708+00:00", "meta": {"OBJECT_NAME": "SENTINEL-5P", "OBJECT_ID": "2017-064A", "EPOCH": "2025-12-18T09:44:13.567776", "MEAN_MOTION": 14.19518939, "ECCENTRICITY": 0.0001007, "INCLINATION": 98.7791, "RA_OF_ASC_NODE": 290.9397, "ARG_OF_PERICENTER": 90.0265, "MEAN_ANOMALY": 270.1026, "EPHEMERIS_TYPE": 0, "CLASSIFICATION_TYPE": "U", "NORAD_CAT_ID": 42969, "ELEMENT_SET_NO": 999, "REV_AT_EPOCH": 42391, "BSTAR": 4.16569e-05, "MEAN_MOTION_DOT": 4.4e-07, "MEAN_MOTION_DDOT": 0}, "tle": {"line1": "1 42969U 17064A   25352.40571259  .00000044  00000+0  41657-4 0  9992", "line2": "2 42969  98.7791 290.9397 0001007  90.0265 270.1026 14.19518939423919"}}, "geometry": {"type": "Point", "coordinates": [-90.7689957164039, 67.82526481132282]}}]}